[{"OBJECT_NAME":"STARLINK-33824","OBJECT_ID":"2025-089R","EPOCH":"2025-08-04T08:21:02.074752","MEAN_MOTION":15.27600769,"ECCENTRICITY":0.0001788,"INCLINATION":42.9998,"RA_OF_ASC_NODE":193.0425,"ARG_OF_PERICENTER":274.5238,"MEAN_ANOMALY":85.5409,"EPHEMERIS_TYPE":0,"CLASSIFICATION_TYPE":"U","NORAD_CAT_ID":63766,"ELEMENT_SET_NO":999,"REV_AT_EPOCH":1571,"BSTAR":0.00069202,"MEAN_MOTION_DOT":0.00018842,"MEAN_MOTION_DDOT":0},{"OBJECT_NAME":"STARLINK-33808","OBJECT_ID":"2025-089S","EPOCH":"2025-08-04T09:14:29.976288","MEAN_MOTION":15.27593253,"ECCENTRICITY":3.63e-5,"INCLINATION":42.9994,"RA_OF_ASC_NODE":192.4537,"ARG_OF_PERICENTER":67.5209,"MEAN_ANOMALY":292.5681,"EPHEMERIS_TYPE":0,"CLASSIFICATION_TYPE":"U","NORAD_CAT_ID":63767,"ELEMENT_SET_NO":999,"REV_AT_EPOCH":1572,"BSTAR":0.00082769,"MEAN_MOTION_DOT":0.00022593,"MEAN_MOTION_DDOT":0},{"OBJECT_NAME":"STARLINK-33844","OBJECT_ID":"2025-089T","EPOCH":"2025-08-04T10:20:54.788352","MEAN_MOTION":15.275817,"ECCENTRICITY":0.0001041,"INCLINATION":42.9979,"RA_OF_ASC_NODE":191.9398,"ARG_OF_PERICENTER":260.959,"MEAN_ANOMALY":99.1144,"EPHEMERIS_TYPE":0,"CLASSIFICATION_TYPE":"U","NORAD_CAT_ID":63768,"ELEMENT_SET_NO":999,"REV_AT_EPOCH":1573,"BSTAR":0.00091758,"MEAN_MOTION_DOT":0.00025075,"MEAN_MOTION_DDOT":0},{"OBJECT_NAME":"STARLINK-33907","OBJECT_ID":"2025-089U","EPOCH":"2025-08-04T07:47:43.955520","MEAN_MOTION":15.27584545,"ECCENTRICITY":0.0001515,"INCLINATION":43.0007,"RA_OF_ASC_NODE":192.8666,"ARG_OF_PERICENTER":271.8295,"MEAN_ANOMALY":88.2383,"EPHEMERIS_TYPE":0,"CLASSIFICATION_TYPE":"U","NORAD_CAT_ID":63769,"ELEMENT_SET_NO":999,"REV_AT_EPOCH":1566,"BSTAR":0.00083704,"MEAN_MOTION_DOT":0.00022846,"MEAN_MOTION_DDOT":0},{"OBJECT_NAME":"STARLINK-33884","OBJECT_ID":"2025-089V","EPOCH":"2025-08-04T10:22:41.723040","MEAN_MOTION":15.27667756,"ECCENTRICITY":0.0001397,"INCLINATION":42.9963,"RA_OF_ASC_NODE":191.9475,"ARG_OF_PERICENTER":257.8988,"MEAN_ANOMALY":102.1707,"EPHEMERIS_TYPE":0,"CLASSIFICATION_TYPE":"U","NORAD_CAT_ID":63770,"ELEMENT_SET_NO":999,"REV_AT_EPOCH":1568,"BSTAR":0.0018521,"MEAN_MOTION_DOT":0.00051196,"MEAN_MOTION_DDOT":0},{"OBJECT_NAME":"STARLINK-33841","OBJECT_ID":"2025-089W","EPOCH":"2025-08-04T07:25:33.481920","MEAN_MOTION":15.27556638,"ECCENTRICITY":0.0001017,"INCLINATION":42.9991,"RA_OF_ASC_NODE":192.7429,"ARG_OF_PERICENTER":261.7127,"MEAN_ANOMALY":98.3609,"EPHEMERIS_TYPE":0,"CLASSIFICATION_TYPE":"U","NORAD_CAT_ID":63771,"ELEMENT_SET_NO":999,"REV_AT_EPOCH":1566,"BSTAR":0.00085604,"MEAN_MOTION_DOT":0.00023352,"MEAN_MOTION_DDOT":0},{"OBJECT_NAME":"STARLINK-33769","OBJECT_ID":"2025-089X","EPOCH":"2025-08-04T10:19:03.638208","MEAN_MOTION":15.27595684,"ECCENTRICITY":7.89e-5,"INCLINATION":42.9982,"RA_OF_ASC_NODE":191.9262,"ARG_OF_PERICENTER":266.4298,"MEAN_ANOMALY":93.6463,"EPHEMERIS_TYPE":0,"CLASSIFICATION_TYPE":"U","NORAD_CAT_ID":63773,"ELEMENT_SET_NO":999,"REV_AT_EPOCH":1572,"BSTAR":0.00051016,"MEAN_MOTION_DOT":0.00013809,"MEAN_MOTION_DDOT":0},{"OBJECT_NAME":"STARLINK-33914","OBJECT_ID":"2025-089Y","EPOCH":"2025-08-04T14:43:41.227104","MEAN_MOTION":15.27592029,"ECCENTRICITY":0.0001221,"INCLINATION":42.9974,"RA_OF_ASC_NODE":187.2247,"ARG_OF_PERICENTER":266.1648,"MEAN_ANOMALY":93.9064,"EPHEMERIS_TYPE":0,"CLASSIFICATION_TYPE":"U","NORAD_CAT_ID":63774,"ELEMENT_SET_NO":999,"REV_AT_EPOCH":1580,"BSTAR":0.00062817,"MEAN_MOTION_DOT":0.0001707,"MEAN_MOTION_DDOT":0},{"OBJECT_NAME":"STARLINK-33932","OBJECT_ID":"2025-091A","EPOCH":"2025-08-04T08:14:03.993792","MEAN_MOTION":15.27589956,"ECCENTRICITY":0.0001404,"INCLINATION":43.0018,"RA_OF_ASC_NODE":199.8282,"ARG_OF_PERICENTER":272.3552,"MEAN_ANOMALY":87.7139,"EPHEMERIS_TYPE":0,"CLASSIFICATION_TYPE":"U","NORAD_CAT_ID":63775,"ELEMENT_SET_NO":999,"REV_AT_EPOCH":1570,"BSTAR":0.00086304,"MEAN_MOTION_DOT":0.0002357,"MEAN_MOTION_DDOT":0},{"OBJECT_NAME":"STARLINK-33930","OBJECT_ID":"2025-091B","EPOCH":"2025-08-04T07:29:52.285344","MEAN_MOTION":15.27595572,"ECCENTRICITY":0.0001965,"INCLINATION":42.9951,"RA_OF_ASC_NODE":200.4637,"ARG_OF_PERICENTER":260.6362,"MEAN_ANOMALY":99.4267,"EPHEMERIS_TYPE":0,"CLASSIFICATION_TYPE":"U","NORAD_CAT_ID":63776,"ELEMENT_SET_NO":999,"REV_AT_EPOCH":1565,"BSTAR":0.00088129,"MEAN_MOTION_DOT":0.0002408,"MEAN_MOTION_DDOT":0},{"OBJECT_NAME":"STARLINK-33911","OBJECT_ID":"2025-091C","EPOCH":"2025-08-04T05:01:37.273152","MEAN_MOTION":15.27592462,"ECCENTRICITY":0.000156,"INCLINATION":42.9998,"RA_OF_ASC_NODE":193.5808,"ARG_OF_PERICENTER":270.1332,"MEAN_ANOMALY":89.9341,"EPHEMERIS_TYPE":0,"CLASSIFICATION_TYPE":"U","NORAD_CAT_ID":63777,"ELEMENT_SET_NO":999,"REV_AT_EPOCH":1572,"BSTAR":0.00079287,"MEAN_MOTION_DOT":0.00021628,"MEAN_MOTION_DDOT":0},{"OBJECT_NAME":"STARLINK-33938","OBJECT_ID":"2025-091D","EPOCH":"2025-08-04T05:29:48.340608","MEAN_MOTION":15.2759264,"ECCENTRICITY":0.0001407,"INCLINATION":42.9994,"RA_OF_ASC_NODE":200.6958,"ARG_OF_PERICENTER":252.6017,"MEAN_ANOMALY":107.468,"EPHEMERIS_TYPE":0,"CLASSIFICATION_TYPE":"U","NORAD_CAT_ID":63778,"ELEMENT_SET_NO":999,"REV_AT_EPOCH":1573,"BSTAR":0.00066049,"MEAN_MOTION_DOT":0.00017964,"MEAN_MOTION_DDOT":0},{"OBJECT_NAME":"STARLINK-33881","OBJECT_ID":"2025-091E","EPOCH":"2025-08-04T07:39:08.190720","MEAN_MOTION":15.2758971,"ECCENTRICITY":3.48e-5,"INCLINATION":42.9938,"RA_OF_ASC_NODE":200.5114,"ARG_OF_PERICENTER":33.1123,"MEAN_ANOMALY":326.9751,"EPHEMERIS_TYPE":0,"CLASSIFICATION_TYPE":"U","NORAD_CAT_ID":63779,"ELEMENT_SET_NO":999,"REV_AT_EPOCH":1565,"BSTAR":0.001012,"MEAN_MOTION_DOT":0.00027699,"MEAN_MOTION_DDOT":0},{"OBJECT_NAME":"STARLINK-33846","OBJECT_ID":"2025-091F","EPOCH":"2025-08-04T07:24:19.412064","MEAN_MOTION":15.27594719,"ECCENTRICITY":0.0001431,"INCLINATION":42.9975,"RA_OF_ASC_NODE":200.4335,"ARG_OF_PERICENTER":262.4941,"MEAN_ANOMALY":97.5748,"EPHEMERIS_TYPE":0,"CLASSIFICATION_TYPE":"U","NORAD_CAT_ID":63780,"ELEMENT_SET_NO":999,"REV_AT_EPOCH":1570,"BSTAR":0.0010806,"MEAN_MOTION_DOT":0.00029607,"MEAN_MOTION_DDOT":0},{"OBJECT_NAME":"STARLINK-33883","OBJECT_ID":"2025-091G","EPOCH":"2025-08-04T05:44:36.879072","MEAN_MOTION":15.27586419,"ECCENTRICITY":0.0001408,"INCLINATION":42.9975,"RA_OF_ASC_NODE":200.774,"ARG_OF_PERICENTER":276.629,"MEAN_ANOMALY":83.4401,"EPHEMERIS_TYPE":0,"CLASSIFICATION_TYPE":"U","NORAD_CAT_ID":63781,"ELEMENT_SET_NO":999,"REV_AT_EPOCH":1564,"BSTAR":0.00067817,"MEAN_MOTION_DOT":0.0001845,"MEAN_MOTION_DDOT":0},{"OBJECT_NAME":"STARLINK-33842","OBJECT_ID":"2025-091H","EPOCH":"2025-08-04T10:06:43.639488","MEAN_MOTION":15.27587363,"ECCENTRICITY":0.000152,"INCLINATION":43.0006,"RA_OF_ASC_NODE":199.5633,"ARG_OF_PERICENTER":271.322,"MEAN_ANOMALY":88.7457,"EPHEMERIS_TYPE":0,"CLASSIFICATION_TYPE":"U","NORAD_CAT_ID":63782,"ELEMENT_SET_NO":999,"REV_AT_EPOCH":1576,"BSTAR":0.00042637,"MEAN_MOTION_DOT":0.00011492,"MEAN_MOTION_DDOT":0}]
