STARLINK-33824          
1 63766U 25089R   25216.34794068  .00018842  00000+0  69202-3 0  9993
2 63766  42.9998 193.0425 0001788 274.5238  85.5409 15.27600769 15718
STARLINK-33808          
1 63767U 25089S   25216.38506917  .00022593  00000+0  82769-3 0  9993
2 63767  42.9994 192.4537 0000363  67.5209 292.5681 15.27593253 15720
STARLINK-33844          
1 63768U 25089T   25216.43118968  .00025075  00000+0  91758-3 0  9991
2 63768  42.9979 191.9398 0001041 260.9590  99.1144 15.27581700 15739
STARLINK-33907          
1 63769U 25089U   25216.32481430  .00022846  00000+0  83704-3 0  9992
2 63769  43.0007 192.8666 0001515 271.8295  88.2383 15.27584545 15667
STARLINK-33884          
1 63770U 25089V   25216.43242735  .00051196  00000+0  18521-2 0  9993
2 63770  42.9963 191.9475 0001397 257.8988 102.1707 15.27667756 15681
STARLINK-33841          
1 63771U 25089W   25216.30941530  .00023352  00000+0  85604-3 0  9999
2 63771  42.9991 192.7429 0001017 261.7127  98.3609 15.27556638 15660
STARLINK-33769          
1 63773U 25089X   25216.42990322  .00013809  00000+0  51016-3 0  9993
2 63773  42.9982 191.9262 0000789 266.4298  93.6463 15.27595684 15721
STARLINK-33914          
1 63774U 25089Y   25216.61367161  .00017070  00000+0  62817-3 0  9999
2 63774  42.9974 187.2247 0001221 266.1648  93.9064 15.27592029 15801
STARLINK-33932          
1 63775U 25091A   25216.34310178  .00023570  00000+0  86304-3 0  9998
2 63775  43.0018 199.8282 0001404 272.3552  87.7139 15.27589956 15705
STARLINK-33930          
1 63776U 25091B   25216.31241071  .00024080  00000+0  88129-3 0  9995
2 63776  42.9951 200.4637 0001965 260.6362  99.4267 15.27595572 15651
STARLINK-33911          
1 63777U 25091C   25216.20945918  .00021628  00000+0  79287-3 0  9995
2 63777  42.9998 193.5808 0001560 270.1332  89.9341 15.27592462 15729
STARLINK-33938          
1 63778U 25091D   25216.22903172  .00017964  00000+0  66049-3 0  9994
2 63778  42.9994 200.6958 0001407 252.6017 107.4680 15.27592640 15738
STARLINK-33881          
1 63779U 25091E   25216.31884480  .00027699  00000+0  10120-2 0  9999
2 63779  42.9938 200.5114 0000348  33.1123 326.9751 15.27589710 15655
STARLINK-33846          
1 63780U 25091F   25216.30855801  .00029607  00000+0  10806-2 0  9997
2 63780  42.9975 200.4335 0001431 262.4941  97.5748 15.27594719 15709
STARLINK-33883          
1 63781U 25091G   25216.23931573  .00018450  00000+0  67817-3 0  9990
2 63781  42.9975 200.7740 0001408 276.6290  83.4401 15.27586419 15642
STARLINK-33842          
1 63782U 25091H   25216.42133842  .00011492  00000+0  42637-3 0  9997
2 63782  43.0006 199.5633 0001520 271.3220  88.7457 15.27587363 15767
